[{"OBJECT_NAME":"STARLINK-6239","OBJECT_ID":"2023-061BB","EPOCH":"2026-03-08T13:30:47.288448","MEAN_MOTION":15.02537229,"ECCENTRICITY":0.00011696,"INCLINATION":43.0027,"RA_OF_ASC_NODE":177.7115,"ARG_OF_PERICENTER":275.8336,"MEAN_ANOMALY":84.2373,"EPHEMERIS_TYPE":0,"CLASSIFICATION_TYPE":"U","NORAD_CAT_ID":56423,"ELEMENT_SET_NO":999,"REV_AT_EPOCH":15688,"BSTAR":6.1795971e-5,"MEAN_MOTION_DOT":6.31e-6,"MEAN_MOTION_DDOT":0},{"OBJECT_NAME":"CZ-6A DEB","OBJECT_ID":"2022-151MR","EPOCH":"2026-03-09T04:38:57.025248","MEAN_MOTION":14.83234999,"ECCENTRICITY":0.00930298,"INCLINATION":98.7155,"RA_OF_ASC_NODE":156.563,"ARG_OF_PERICENTER":210.5568,"MEAN_ANOMALY":149.0205,"EPHEMERIS_TYPE":0,"CLASSIFICATION_TYPE":"U","NORAD_CAT_ID":54591,"ELEMENT_SET_NO":999,"REV_AT_EPOCH":10171,"BSTAR":0.0039988964,"MEAN_MOTION_DOT":0.00035363,"MEAN_MOTION_DDOT":0}]
